*******************************************************************************
Ephemeris / WWW_USER Mon Mar 10 06:45:30 2025 Pasadena, USA      / Horizons    
*******************************************************************************
Target body name: (2018 TG6)                      {source: JPL#30}
Center body name: Earth (399)                     {source: DE441}
Center-site name: Mauna Kea
*******************************************************************************
Start time      : A.D. 2018-Aug-27 04:51:00.0000 UT      
Stop  time      : A.D. 2018-Aug-27 15:56:00.0000 UT      
Step-size       : 1 minutes
*******************************************************************************
Target pole/equ : undefined
Target radii    : undefined                                                    
Center geodetic : 204.5278, 19.8260847, 4.21024   {E-lon(deg),Lat(deg),Alt(km)}
Center cylindric: 204.5278, 6006.35451, 2151.0229 {E-lon(deg),Dxy(km),Dz(km)}
Center pole/equ : ITRF93                          {East-longitude positive}
Center radii    : 6378.137, 6378.137, 6356.752 km {Equator_a, b, pole_c}       
Target primary  : Sun
Vis. interferer : MOON (R_eq= 1737.400) km        {source: DE441}
Rel. light bend : Sun                             {source: DE441}
Rel. lght bnd GM: 1.3271E+11 km^3/s^2                                          
Small-body perts: Yes                             {source: SB441-N16}
Atmos refraction: NO (AIRLESS)
RA format       : HMS
Time format     : CAL 
Calendar mode   : Mixed Julian/Gregorian
RTS-only print  : NO       
EOP file        : eop.250307.p250603                                           
EOP coverage    : DATA-BASED 1962-JAN-20 TO 2025-MAR-07. PREDICTS-> 2025-JUN-02
Units conversion: 1 au= 149597870.700 km, c= 299792.458 km/s, 1 day= 86400.0 s 
Table cut-offs 1: Elevation (-90.0deg=NO ),Airmass (>38.000=NO), Daylight (YES)
Table cut-offs 2: Solar elongation (  0.0,180.0=NO ),Local Hour Angle( 0.0=NO )
Table cut-offs 3: RA/DEC angular rate (     0.0=NO )                           
*******************************************************************************
Initial IAU76/J2000 heliocentric ecliptic osculating elements (au, days, deg.):
  EPOCH=  2458431.5 ! 2018-Nov-09.00 (TDB)         Residual RMS= .2345         
   EC= .08078462401503236  QR= .9719826736009184   TP= 2458484.4320189627      
   OM= 45.37159736002829   W=  55.46172815883946   IN= 1.097814612439332       
  Equivalent ICRF heliocentric cartesian coordinates (au, au/d):
   X= 7.039692724255667E-01  Y= 6.572194580492579E-01  Z= 2.849862807208282E-01
  VX=-1.330010453008250E-02 VY= 1.042346427712734E-02 VZ= 4.885657766154543E-03
Asteroid physical parameters (km, seconds, rotational period in hours):        
   GM= n.a.                RAD= n.a.               ROTPER= n.a.                
   H= 27.25                G= .150                 B-V= n.a.                   
                           ALBEDO= n.a.            STYP= n.a.                  
*******************************************************************************
 Date__(UT)__HR:MN     R.A._________(ICRF)_________DEC
******************************************************
$$SOE
 2018-Aug-27 15:06 Am  01 21 10.434829 -01 42 03.60858
 2018-Aug-27 15:07 Am  01 21 10.473345 -01 42 03.56069
 2018-Aug-27 15:08 Am  01 21 10.511899 -01 42 03.51277
 2018-Aug-27 15:09 Am  01 21 10.550494 -01 42 03.46482
 2018-Aug-27 15:10 Am  01 21 10.589128 -01 42 03.41685
 2018-Aug-27 15:11 Am  01 21 10.627803 -01 42 03.36885
 2018-Aug-27 15:12 Am  01 21 10.666519 -01 42 03.32082
 2018-Aug-27 15:13 Am  01 21 10.705276 -01 42 03.27276
 2018-Aug-27 15:14 Am  01 21 10.744074 -01 42 03.22468
 2018-Aug-27 15:15 Am  01 21 10.782914 -01 42 03.17656
 2018-Aug-27 15:16 Am  01 21 10.821796 -01 42 03.12843
 2018-Aug-27 15:17 Nm  01 21 10.860721 -01 42 03.08026
 2018-Aug-27 15:18 Nm  01 21 10.899688 -01 42 03.03207
 2018-Aug-27 15:19 Nm  01 21 10.938699 -01 42 02.98385
 2018-Aug-27 15:20 Nm  01 21 10.977754 -01 42 02.93560
 2018-Aug-27 15:21 Nm  01 21 11.016852 -01 42 02.88733
 2018-Aug-27 15:22 Nm  01 21 11.055994 -01 42 02.83903
 2018-Aug-27 15:23 Nm  01 21 11.095181 -01 42 02.79070
 2018-Aug-27 15:24 Nm  01 21 11.134413 -01 42 02.74235
 2018-Aug-27 15:25 Nm  01 21 11.173691 -01 42 02.69396
 2018-Aug-27 15:26 Nm  01 21 11.213014 -01 42 02.64556
 2018-Aug-27 15:27 Nm  01 21 11.252383 -01 42 02.59713
 2018-Aug-27 15:28 Nm  01 21 11.291798 -01 42 02.54867
 2018-Aug-27 15:29 Nm  01 21 11.331260 -01 42 02.50018
 2018-Aug-27 15:30 Nm  01 21 11.370769 -01 42 02.45167
 2018-Aug-27 15:31 Nm  01 21 11.410325 -01 42 02.40313
 2018-Aug-27 15:32 Nm  01 21 11.449929 -01 42 02.35457
 2018-Aug-27 15:33 Nm  01 21 11.489581 -01 42 02.30598
 2018-Aug-27 15:34 Nm  01 21 11.529281 -01 42 02.25736
 2018-Aug-27 15:35 Nm  01 21 11.569030 -01 42 02.20872
 2018-Aug-27 15:36 Nm  01 21 11.608828 -01 42 02.16006
 2018-Aug-27 15:37 Nm  01 21 11.648676 -01 42 02.11136
 2018-Aug-27 15:38 Nm  01 21 11.688573 -01 42 02.06265
 2018-Aug-27 15:39 Nm  01 21 11.728520 -01 42 02.01390
 2018-Aug-27 15:40 Nm  01 21 11.768517 -01 42 01.96514
 2018-Aug-27 15:41 Nm  01 21 11.808565 -01 42 01.91634
 2018-Aug-27 15:42 Nm  01 21 11.848665 -01 42 01.86752
 2018-Aug-27 15:43 Cm  01 21 11.888815 -01 42 01.81868
 2018-Aug-27 15:44 Cm  01 21 11.929017 -01 42 01.76981
 2018-Aug-27 15:45 Cm  01 21 11.969271 -01 42 01.72092
 2018-Aug-27 15:46 Cm  01 21 12.009578 -01 42 01.67200
 2018-Aug-27 15:47 Cm  01 21 12.049937 -01 42 01.62306
 2018-Aug-27 15:48 Cm  01 21 12.090349 -01 42 01.57410
 2018-Aug-27 15:49 Cm  01 21 12.130814 -01 42 01.52510
 2018-Aug-27 15:50 Cm  01 21 12.171333 -01 42 01.47609
 2018-Aug-27 15:51 Cm  01 21 12.211906 -01 42 01.42705
 2018-Aug-27 15:52 Cm  01 21 12.252533 -01 42 01.37799
 2018-Aug-27 15:53 Cm  01 21 12.293214 -01 42 01.32890
 2018-Aug-27 15:54 Cm  01 21 12.333951 -01 42 01.27979
 2018-Aug-27 15:55 Cm  01 21 12.374743 -01 42 01.23065
 2018-Aug-27 15:56 Cm  01 21 12.415590 -01 42 01.18150
